[{"OBJECT_NAME":"STARLINK-3661","OBJECT_ID":"2022-029AT","EPOCH":"2026-03-09T06:45:10.080288","MEAN_MOTION":15.08838204,"ECCENTRICITY":0.00014301,"INCLINATION":53.2179,"RA_OF_ASC_NODE":70.9538,"ARG_OF_PERICENTER":93.302,"MEAN_ANOMALY":266.8136,"EPHEMERIS_TYPE":0,"CLASSIFICATION_TYPE":"U","NORAD_CAT_ID":52129,"ELEMENT_SET_NO":999,"REV_AT_EPOCH":22087,"BSTAR":-4.357367e-6,"MEAN_MOTION_DOT":-3.57e-6,"MEAN_MOTION_DDOT":0},{"OBJECT_NAME":"CZ-6A DEB","OBJECT_ID":"2024-140RN","EPOCH":"2026-03-09T09:36:23.350464","MEAN_MOTION":14.99974811,"ECCENTRICITY":0.0047719,"INCLINATION":88.1445,"RA_OF_ASC_NODE":217.6461,"ARG_OF_PERICENTER":172.1525,"MEAN_ANOMALY":188.0467,"EPHEMERIS_TYPE":0,"CLASSIFICATION_TYPE":"U","NORAD_CAT_ID":61168,"ELEMENT_SET_NO":999,"REV_AT_EPOCH":8322,"BSTAR":0.0063622011,"MEAN_MOTION_DOT":0.00081758,"MEAN_MOTION_DDOT":0}]
